From:	Horizons Ephemeris System <horizons@ssd.jpl.nasa.gov>
Sent:	Wednesday, March 4, 2020 10:00 AM
Subject:	[Horizons] MAJOR BODY #C(usr={0.,35.,.600^G}@301)_T(301) (1/1)

 Automated mail xmit by MAIL_REQUEST, PID= 8638 Wed Mar  4 08:00:08 2020
++++++++++++++++++++++++++++++++ (part 1 of 1)  +++++++++++++++++++++++++++++++
*******************************************************************************
 Revised: July 31, 2013             Moon / (Earth)                          301
 
 GEOPHYSICAL DATA (updated 2018-Aug-15):
  Vol. mean radius, km  = 1737.53+-0.03    Mass, x10^22 kg       =    7.349
  Radius (gravity), km  = 1738.0           Surface emissivity    =    0.92
  Radius (IAU), km      = 1737.4           GM, km^3/s^2          = 4902.800066
  Density, g/cm^3       =    3.3437        GM 1-sigma, km^3/s^2  =  +-0.0001  
  V(1,0)                =   +0.21          Surface accel., m/s^2 =    1.62
  Earth/Moon mass ratio = 81.3005690769    Farside crust. thick. = ~80 - 90 km
  Mean crustal density  = 2.97+-.07 g/cm^3 Nearside crust. thick.= 58+-8 km 
  Heat flow, Apollo 15  = 3.1+-.6 mW/m^2   Mean angular diameter = 31'05.2"
  Heat flow, Apollo 17  = 2.2+-.5 mW/m^2   Sid. rot. rate, rad/s = 0.0000026617
  Geometric Albedo      = 0.12             Mean solar day        = 29.5306 d
  Obliquity to orbit    = 6.67 deg         Orbit period          = 27.321582 d
  Semi-major axis, a    = 384400 km        Eccentricity          = 0.05490
  Mean motion, rad/s    = 2.6616995x10^-6  Inclination           = 5.145 deg
  Apsidal period        = 3231.50 d        Nodal period          = 6798.38 d
                                 Perihelion  Aphelion    Mean
  Solar Constant (W/m^2)         1414+-7     1323+-7     1368+-7
  Maximum Planetary IR (W/m^2)   1314        1226        1268
  Minimum Planetary IR (W/m^2)      5.2         5.2         5.2
 *******************************************************************************
 
 
*******************************************************************************
Ephemeris / MAIL_REQUEST Wed Mar  4 08:00:07 2020 Pasadena, USA  / Horizons    
*******************************************************************************
Target body name: Moon (301)                      {source: DE431mx}
Center body name: Moon (301)                      {source: DE431mx}
Center-site name: (user defined site below)
*******************************************************************************
Start time      : A.D. 2020-Jan-01 00:00:00.0000 TDB
Stop  time      : A.D. 2039-Jan-01 00:00:00.0000 TDB
Step-size       : 10000 steps
*******************************************************************************
Center geodetic : 0.00000000,35.0000000,0.6000000 {E-lon(deg),Lat(deg),Alt(km)}
Center cylindric: 0.00000000,1423.68625,996.87585 {E-lon(deg),Dxy(km),Dz(km)}
Center pole/equ : IAU_MOON                        {East-longitude positive}
Center radii    : 1737.4 x 1737.4 x 1737.4 km     {Equator, meridian, pole}    
Output units    : KM-S                                                         
Output type     : GEOMETRIC cartesian states
Output format   : 3 (position, velocity, LT, range, range-rate)
Reference frame : ICRF/J2000.0                                                 
Coordinate systm: Ecliptic and Mean Equinox of Reference Epoch                 
*******************************************************************************
JDTDB
   X     Y     Z
   VX    VY    VZ
   LT    RG    RR
*******************************************************************************
$$SOE
2461132.066000001 = A.D. 2026-Apr-01 13:35:02.4001 TDB 
  -1.434464320368067E+03 -4.822228516939981E+01 -9.801177096675791E+02
   6.303394732749865E-05 -3.789427687262554E-03  9.418757894094892E-05
   5.797343974543882E-03  1.738000000000000E+03  2.395475455894326E-20
2461132.760000001 = A.D. 2026-Apr-02 06:14:24.0001 TDB 
  -1.412600748817420E+03 -2.741838160366824E+02 -9.746929565068301E+02
   6.646740372399418E-04 -3.731437492268207E-03  8.636640661639555E-05
   5.797343974543882E-03  1.738000000000000E+03  1.357436091673451E-19
2461133.454000001 = A.D. 2026-Apr-02 22:53:45.6001 TDB 
  -1.355092033117185E+03 -4.938102804066743E+02 -9.698046136964995E+02
   1.249440057006847E-03 -3.578570784640063E-03  7.633370110358148E-05
   5.797343974543883E-03  1.738000000000000E+03 -3.752911547567776E-19
2461134.148000001 = A.D. 2026-Apr-03 15:33:07.2001 TDB 
  -1.263398985899009E+03 -7.015171267496097E+02 -9.655779219236147E+02
   1.802458322381198E-03 -3.334705786032676E-03  6.434406125145511E-05
   5.797343974543883E-03  1.738000000000000E+03  2.555173819620613E-19
2461134.842000001 = A.D. 2026-Apr-04 08:12:28.8001 TDB 
  -1.139851975567804E+03 -8.920224433544156E+02 -9.621213199727941E+02
   2.309660547511014E-03 -3.006037370611647E-03  5.070219437359243E-05
   5.797343974543883E-03  1.738000000000000E+03 -7.186426367682975E-20
2461135.536000001 = A.D. 2026-Apr-05 00:51:50.4001 TDB 
  -9.875917514805977E+02 -1.060481443285465E+03 -9.595236530980683E+02
   2.758142622216727E-03 -2.600919870850035E-03  3.575561195371334E-05
   5.797343974543882E-03  1.738000000000000E+03 -7.186426367682975E-20
2461136.230000001 = A.D. 2026-Apr-05 17:31:12.0001 TDB 
  -8.104895992640008E+02 -1.202609842764896E+03 -9.578518547092083E+02
   3.136493787616465E-03 -2.129654605681563E-03  1.988616232175813E-05
   5.797343974543883E-03  1.738000000000000E+03  4.391705002472930E-19
2461136.924000001 = A.D. 2026-Apr-06 10:10:33.6001 TDB 
  -6.130488597881376E+02 -1.314792974578969E+03 -9.571491678470244E+02
   3.435087732603634E-03 -1.604227567235147E-03  3.500517363810569E-06
   5.797343974543882E-03  1.738000000000000E+03 -1.230176458079065E-19
2461137.618000001 = A.D. 2026-Apr-07 02:49:55.2001 TDB 
  -4.002903250324862E+02 -1.394177843693669E+03 -9.574339642184503E+02
   3.646328124327336E-03 -1.038003998070011E-03 -1.298021038722387E-05
   5.797343974543884E-03  1.738000000000000E+03 -1.507153307666846E-19
2461138.312000001 = A.D. 2026-Apr-07 19:29:16.8001 TDB 
  -1.776244383146423E+02 -1.438745770322219E+03 -9.586992058478679E+02
   3.764842271474711E-03 -4.453877040753215E-04 -2.913147132246237E-05
   5.797343974543882E-03  1.738000000000000E+03  1.397360682605023E-20
2461139.006000001 = A.D. 2026-Apr-08 12:08:38.4001 TDB 
   4.928643543642417E+01 -1.447363764279366E+03 -9.609125772582197E+02
   3.787617964488805E-03  1.585461479635714E-04 -4.453658145056210E-05
   5.797343974543882E-03  1.738000000000000E+03  1.596983637262884E-20
2461139.700000001 = A.D. 2026-Apr-09 04:48:00.0001 TDB 
   2.746721499931549E+02 -1.419813320463355E+03 -9.640172949968071E+02
   3.714080004883027E-03  7.584353248998897E-04 -5.879794595925288E-05
   5.797343974543883E-03  1.738000000000000E+03  1.996229546578604E-19
2461140.394000001 = A.D. 2026-Apr-09 21:27:21.6001 TDB 
   4.928016464889998E+02 -1.356795904495644E+03 -9.679335776599444E+02
   3.546104488459094E-03  1.339022060121370E-03 -7.154779859455370E-05
   5.797343974543883E-03  1.738000000000000E+03 -6.946878822093542E-19
2461141.088000001 = A.D. 2026-Apr-10 14:06:43.2001 TDB 
   6.981287998954560E+02 -1.259914995016536E+03 -9.725607354242776E+02
   3.287970506188579E-03  1.885541792513491E-03 -8.245806315225490E-05
   5.797343974543882E-03  1.738000000000000E+03  4.152157456883497E-19
2461141.782000001 = A.D. 2026-Apr-11 06:46:04.8001 TDB 
   8.854335209092194E+02 -1.131635149630723E+03 -9.777798157921613E+02
   2.946250533213771E-03  2.384099157210372E-03 -9.124899282955852E-05
   5.797343974543882E-03  1.738000000000000E+03 -4.391705002472930E-19
2461142.476000001 = A.D. 2026-Apr-11 23:25:26.4001 TDB 
   1.049954514454184E+03 -9.752191496507586E+02 -9.834567238733644E+02
   2.529642351546040E-03  2.822021607226168E-03 -9.769632237247245E-05
   5.797343974543884E-03  1.738000000000000E+03 -1.357436091673451E-19
2461143.170000001 = A.D. 2026-Apr-12 16:04:48.0001 TDB 
   1.187510312191173E+03 -7.946448394085942E+02 -9.894457224329752E+02
   2.048746855436767E-03  3.188181628121830E-03 -1.016367625872629E-04
   5.797343974543882E-03  1.738000000000000E+03  2.395475455894325E-20
2461143.864000001 = A.D. 2026-Apr-13 08:44:09.6001 TDB 
   1.294605499572239E+03 -5.945037943814473E+02 -9.955932095707435E+02
   1.515797479813365E-03  3.473279327557053E-03 -1.029717605440369E-04
   5.797343974543881E-03  1.738000000000000E+03 -6.387934549051535E-20
2461144.558000001 = A.D. 2026-Apr-14 01:23:31.2001 TDB 
   1.368519440196953E+03 -3.798844151383042E+02 -1.001741669762243E+03
   9.443482328365967E-04  3.670078217667900E-03 -1.016695275362278E-04
   5.797343974543883E-03  1.738000000000000E+03  7.186426367682975E-20
2461145.252000001 = A.D. 2026-Apr-14 18:02:52.8001 TDB 
   1.407375251473089E+03 -1.562424388648754E+02 -1.007733695893223E+03
   3.489283677085170E-04  3.773588232933175E-03 -9.776539172690795E-05
   5.797343974543884E-03  1.738000000000000E+03 -1.996229546578604E-19
2461145.946000001 = A.D. 2026-Apr-15 10:42:14.4001 TDB 
   1.410187293622742E+03  7.073782318042396E+01 -1.013415984320684E+03
  -2.553274332436531E-04  3.781191404251950E-03 -9.136056125092374E-05
   5.797343974543882E-03  1.738000000000000E+03 -7.984918186314416E-21
2461146.640000001 = A.D. 2026-Apr-16 03:21:36.0001 TDB 
   1.376885985319471E+03  2.952879836098909E+02 -1.018643210435545E+03
  -8.530638902793160E-04  3.692707101255376E-03 -8.261939043415086E-05
   5.797343974543882E-03  1.738000000000000E+03 -4.072308275020353E-19
2461147.334000001 = A.D. 2026-Apr-16 20:00:57.6001 TDB 
   1.308319338849867E+03  5.117021349792093E+02 -1.023281697602946E+03
  -1.429095155789691E-03  3.510395315649939E-03 -7.176523523214811E-05
   5.797343974543884E-03  1.738000000000000E+03 -1.277586909810306E-19
